NOAA 15                 
1 25338U 98030A   20189.50198927  .00000068  00000-0  47187-4 0  9997
2 25338  98.7154 214.4500 0010019 198.2544 161.8277 14.25977363151834
DMSP 5D-3 F15 (USA 147) 
1 25991U 99067A   20189.51178862 -.00000110  00000-0 -32576-4 0  9996
2 25991  98.9706 161.0337 0010791  47.5701  60.7300 14.16480736 63263
METEOSAT-8 (MSG-1)      
1 27509U 02040B   20189.16015174  .00000123  00000-0  00000-0 0  9990
2 27509   6.7587  54.0280 0002437  40.1873 290.3693  1.00270077 65485
DMSP 5D-3 F16 (USA 172) 
1 28054U 03048A   20189.56420035 -.00000104  00000-0 -31369-4 0  9992
2 28054  98.9127 168.5552 0007654 158.1811 346.9892 14.13653247862627
NOAA 18                 
1 28654U 05018A   20189.56342710  .00000066  00000-0  60201-4 0  9992
2 28654  99.0423 246.1792 0014560 170.4637 189.6813 14.12523225779757
METEOSAT-9 (MSG-2)      
1 28912U 05049B   20189.27159024  .00000004  00000-0  00000+0 0  9993
2 28912   4.4665  70.0809 0002699  13.6267 303.1452  1.00268061 53307
FORMOSAT-3 FM6          
1 29047U 06011A   20189.36093765  .00000101  00000-0  55616-4 0  9998
2 29047  71.9791  69.3618 0049760  25.9978 334.3642 14.28738791744175
FORMOSAT-3 FM1          
1 29048U 06011B   20189.59009662 -.00000048  00000-0 -22730-5 0  9991
2 29048  71.9657 339.7792 0044264 343.3480  16.6199 14.28704584746681
FORMOSAT-3 FM5          
1 29049U 06011C   20189.30995308  .00000029  00000-0  27749-4 0  9993
2 29049  72.0199 152.1108 0034727   9.2848 350.8923 14.28787687742434
FORMOSAT-3 FM3          
1 29050U 06011D   20189.57476415  .00000101  00000-0  31668-4 0  9993
2 29050  72.0166 295.6098 0051593 287.8188  71.7340 14.58925938759269
FORMOSAT-3 FM4          
1 29051U 06011E   20189.37942527  .00000018  00000-0  23216-4 0  9991
2 29051  72.0060  53.9877 0069684 250.8305 108.5280 14.28818056745035
FORMOSAT-3 FM2          
1 29052U 06011F   20189.23773903  .00000044  00000-0  33253-4 0  9998
2 29052  72.0346 128.5407 0041065 329.5949  30.2806 14.28923414743344
GOES 13                 
1 29155U 06018A   20189.54702237  .00000024  00000-0  00000-0 0  9993
2 29155   0.1077 242.9968 0006747 302.1122 359.4332  1.00276277 21604
METOP-A                 
1 29499U 06044A   20189.58583414 -.00000008  00000-0  15435-4 0  9996
2 29499  98.5206 235.6845 0001211 120.5427  35.8816 14.21501351711568
DMSP 5D-3 F17 (USA 191) 
1 29522U 06050A   20189.51062066 -.00000098  00000-0 -28514-4 0  9990
2 29522  98.8010 205.6093 0010821 117.2431 242.9845 14.14017061705544
FENGYUN 3A              
1 32958U 08026A   20189.52423661 -.00000024  00000-0  80418-5 0  9995
2 32958  98.4065 174.2230 0007500 280.9025  79.1308 14.18628613627562
FENGYUN 2E              
1 33463U 08066A   20189.59981222 -.00000210  00000-0  00000-0 0  9991
2 33463   4.3826  68.4842 0002905 320.9901 198.6528  1.00263786 42329
NOAA 19                 
1 33591U 09005A   20189.49786605  .00000049  00000-0  51665-4 0  9990
2 33591  99.1947 195.3669 0014376  23.8986 336.2849 14.12419668587960
GOES 14                 
1 35491U 09033A   20189.61137366 -.00000104  00000-0  00000-0 0  9996
2 35491   0.3698  97.9598 0008952 114.0685 189.7322  1.00270866 40350
METEOR-M 1              
1 35865U 09049A   20189.49788533 -.00000007  00000-0  15616-4 0  9997
2 35865  98.4387 175.6878 0003302 117.7363 242.4151 14.22242372560623
DMSP 5D-3 F18 (USA 210) 
1 35951U 09057A   20189.57117580  .00000053  00000-0  50976-4 0  9997
2 35951  98.6448 178.7856 0010181 316.3929  43.6439 14.13281609326522
GOES 15                 
1 36411U 10008A   20189.59392556  .00000045  00000-0  00000-0 0  9997
2 36411   0.0748 259.2963 0002986 176.8892 295.3635  1.00267178 37902
COMS 1                  
1 36744U 10032A   20189.53635288 -.00000356  00000-0  00000-0 0  9995
2 36744   0.0433  85.8591 0001182  23.1069 138.2204  1.00271902 29323
FENGYUN 3B              
1 37214U 10059A   20189.48717220 -.00000005  00000-0  20778-4 0  9997
2 37214  99.0465 171.5326 0016451 208.0187 152.0105 14.15951777500512
SUOMI NPP               
1 37849U 11061A   20189.58284417 -.00000009  00000-0  16693-4 0  9998
2 37849  98.7371 127.2366 0001084 107.2836  66.0125 14.19538612450486
FENGYUN 2F              
1 38049U 12002A   20189.60495914 -.00000370  00000-0  00000-0 0  9998
2 38049   2.1097  83.4247 0001875  74.1450  98.4152  1.00271798 31126
METEOSAT-10 (MSG-3)     
1 38552U 12035B   20189.08313314  .00000051  00000-0  00000-0 0  9993
2 38552   1.0039  16.9811 0000852  56.4437 251.3557  1.00278133 29114
METOP-B                 
1 38771U 12049A   20189.56402392  .00000002  00000-0  20736-4 0  9997
2 38771  98.6903 248.5630 0000671  37.3972  99.8828 14.21499640404884
FENGYUN 3C              
1 39260U 13052A   20189.55509344 -.00000010  00000-0  16143-4 0  9997
2 39260  98.5487 239.1187 0011686 152.9970 207.1815 14.15841036351397
METEOR-M 2              
1 40069U 14037A   20189.40435651 -.00000024  00000-0  84318-5 0  9998
2 40069  98.5010 226.1852 0004930 215.5275 144.5579 14.20673611311048
HIMAWARI-8              
1 40267U 14060A   20189.53888272 -.00000287  00000-0  00000-0 0  9991
2 40267   0.0246  95.0755 0000899  44.2855 121.2385  1.00273181 20993
FENGYUN 2G              
1 40367U 14090A   20189.60234207 -.00000309  00000-0  00000-0 0  9991
2 40367   2.1312  94.3522 0002276   1.3294 146.3135  1.00259654 20278
METEOSAT-11 (MSG-4)     
1 40732U 15034A   20189.33619030 -.00000014  00000-0  00000+0 0  9999
2 40732   0.7926 273.5175 0003126 218.3965 274.9517  1.00269763 18264
ELEKTRO-L 2             
1 41105U 15074A   20189.59780580 -.00000109  00000-0  00000-0 0  9991
2 41105   1.2478  96.9478 0001343  41.1293  79.1374  1.00272339 16756
HIMAWARI-9              
1 41836U 16064A   20189.53888272 -.00000286  00000-0  00000-0 0  9999
2 41836   0.0354 278.8642 0000512 168.9734 172.8603  1.00270744 13421
GOES 16                 
1 41866U 16071A   20189.49579247 -.00000259  00000-0  00000-0 0  9994
2 41866   0.0462 202.0275 0001048 291.4769 255.6817  1.00272366 13340
FENGYUN 4A              
1 41882U 16077A   20189.26855068 -.00000342  00000-0  00000-0 0  9994
2 41882   0.0209 346.1111 0004933 157.4151 343.5379  1.00270172 13217
CYGFM05                 
1 41884U 16078A   20189.58786473  .00000213  00000-0  12966-4 0  9999
2 41884  34.9566 294.8888 0016231 227.8275 132.1058 15.14641304197166
CYGFM04                 
1 41885U 16078B   20189.55135685  .00000207  00000-0  12485-4 0  9999
2 41885  34.9497 288.2029 0014687 237.7550 122.1738 15.15151741197226
CYGFM02                 
1 41886U 16078C   20189.54418776  .00000223  00000-0  13289-4 0  9995
2 41886  34.9588 289.9928 0015405 233.7262 126.2026 15.15152689197215
CYGFM01                 
1 41887U 16078D   20189.55899214  .00000220  00000-0  13399-4 0  9996
2 41887  34.9533 296.2357 0016696 228.2463 131.6821 15.14453874197142
CYGFM08                 
1 41888U 16078E   20189.54525437  .00000229  00000-0  13706-4 0  9990
2 41888  34.9503 292.0198 0015930 234.9104 125.0114 15.14869318197172
CYGFM06                 
1 41889U 16078F   20189.58906813  .00000240  00000-0  14200-4 0  9999
2 41889  34.9583 288.4041 0014355 234.2069 125.7308 15.15146791197222
CYGFM07                 
1 41890U 16078G   20189.56748160  .00000213  00000-0  12801-4 0  9993
2 41890  34.9521 287.6217 0014139 237.1118 122.8233 15.15145465197221
CYGFM03                 
1 41891U 16078H   20189.56295299  .00000208  00000-0  12518-4 0  9993
2 41891  34.9553 287.9014 0013612 235.9499 123.9920 15.15141073197224
FENGYUN 3D              
1 43010U 17072A   20189.10071688 -.00000044  00000-0 -11083-6 0  9995
2 43010  98.7517 128.2079 0002191  46.4840 313.6521 14.19744592136989
NOAA 20                 
1 43013U 17073A   20189.58450606 -.00000008  00000-0  16897-4 0  9997
2 43013  98.7184 127.2201 0000820  73.9996 286.1271 14.19557018136512
GOES 17                 
1 43226U 18022A   20189.01785245  .00000086  00000-0  00000-0 0  9996
2 43226   0.0643 225.1330 0000597 235.9707  53.5604  1.00269762  8646
FENGYUN 2H              
1 43491U 18050A   20189.24771522 -.00000139  00000-0  00000-0 0  9999
2 43491   0.6115 273.4113 0003401 222.0044 318.6901  1.00268908  7749
METOP-C                 
1 43689U 18087A   20189.57452846 -.00000005  00000-0  17592-4 0  9999
2 43689  98.6966 248.8746 0000952 301.1859  58.9225 14.21493361 86456
GEO-KOMPSAT-2A          
1 43823U 18100A   20189.39285509 -.00000355  00000-0  00000-0 0  9995
2 43823   0.0372 142.8359 0002302 308.9556 103.6905  1.00271062  5849
IOD-1 GEMS              
1 44385U 98067QK  20189.41421697  .00010967  00000-0  13572-3 0  9992
2 44385  51.6382 232.0612 0003014  35.8856 324.2339 15.60655970 57619
METEOR-M2 2             
1 44387U 19038A   20189.39673805 -.00000040  00000-0  14636-5 0  9998
2 44387  98.6208 149.0447 0001806 134.0956 226.0372 14.23679733 52377
